NORAD_CAT_ID,OBJECT_NAME,OBJECT_TYPE,EPOCH,MEAN_MOTION,ECCENTRICITY,INCLINATION,RA_OF_ASC_NODE,ARG_OF_PERICENTER,MEAN_ANOMALY,BSTAR,MEAN_MOTION_DOT,MEAN_MOTION_DDOT,TLE_LINE0,TLE_LINE1,TLE_LINE2,SEMIMAJOR_AXIS,PERIOD,APOGEE,PERIGEE,DECAYED
49428.0,STARLINK-3121,PAYLOAD,2022-11-30 08:37:20,15.08831018,0.0002874,53.2166,195.178,39.6692,320.451,-5.1288e-05,-1.105e-05,0.0,0 STARLINK-3121,1 49428U 21104W   22334.35926719 -.00001105  00000-0 -51288-4 0  9998,2 49428  53.2166 195.1780 0002874  39.6692 320.4510 15.08831018 59250,6917.908,95.438,541.761,537.785,0.0
49428.0,STARLINK-3121,PAYLOAD,2022-11-30 13:23:30,15.08833179,0.0002883,53.2164,194.2857,39.1687,320.9513,-4.6062e-05,-1.022e-05,0.0,0 STARLINK-3121,1 49428U 21104W   22334.55798634 -.00001022  00000-0 -46062-4 0  9995,2 49428  53.2164 194.2857 0002883  39.1687 320.9513 15.08833179 58215,6917.901,95.438,541.761,537.7719999999998,0.0
49428.0,STARLINK-3121,PAYLOAD,2022-11-30 21:20:25,15.08832913,0.0002861,53.2163,192.799,39.0545,321.0653,4.719e-05,4.62e-06,0.0,0 STARLINK-3121,1 49428U 21104W   22334.88918491  .00000462  00000-0  47190-4 0  9994,2 49428  53.2163 192.7990 0002861  39.0545 321.0653 15.08832913 58260,6917.901999999999,95.438,541.746,537.788,0.0
49428.0,STARLINK-3121,PAYLOAD,2022-12-01 21:11:12,15.08841972,0.0002715,53.2167,188.3377,44.14,315.9808,3.952800000000001e-05,3.41e-06,0.0,0 STARLINK-3121,1 49428U 21104W   22335.88278107  .00000341  00000-0  39528-4 0  9990,2 49428  53.2167 188.3377 0002715  44.1400 315.9808 15.08841972 58415,6917.874,95.437,541.618,537.861,0.0
49428.0,STARLINK-3121,PAYLOAD,2022-12-02 00:21:58,15.08838171,0.0002865,53.2165,187.7444,42.0357,318.0854,-1.9314e-05,-5.96e-06,0.0,0 STARLINK-3121,1 49428U 21104W   22336.01526588 -.00000596  00000-0 -19314-4 0  9990,2 49428  53.2165 187.7444 0002865  42.0357 318.0854 15.08838171 59508,6917.886,95.438,541.7330000000002,537.769,0.0
49428.0,STARLINK-3121,PAYLOAD,2022-12-02 06:43:31,15.088418099999998,0.0002865,53.2164,186.555,41.8681,318.253,-5.6664e-05,-1.19e-05,0.0,0 STARLINK-3121,1 49428U 21104W   22336.28022496 -.00001190  00000-0 -56664-4 0  9998,2 49428  53.2164 186.5550 0002865  41.8681 318.2530 15.08841810 58471,6917.875,95.437,541.722,537.758,0.0
49428.0,STARLINK-3121,PAYLOAD,2022-12-02 17:51:13,15.08831947,0.0002898999999999,53.2168,184.4733,42.7192,317.4026,3.0985e-05,2.04e-06,0.0,0 STARLINK-3121,1 49428U 21104W   22336.74391200  .00000204  00000-0  30985-4 0  9992,2 49428  53.2168 184.4733 0002899  42.7192 317.4026 15.08831947 59617,6917.905,95.438,541.776,537.765,0.0
49428.0,STARLINK-3121,PAYLOAD,2022-12-03 12:55:51,15.08836513,0.0002883,53.2165,180.9044,43.6798,316.4422,7.399300000000001e-05,8.89e-06,0.0,0 STARLINK-3121,1 49428U 21104W   22337.53878808  .00000889  00000-0  73993-4 0  9999,2 49428  53.2165 180.9044 0002883  43.6798 316.4422 15.08836513 59731,6917.891,95.438,541.75,537.762,0.0
49428.0,STARLINK-3121,PAYLOAD,2022-12-03 20:52:46,15.08839252,0.0002892,53.2164,179.4177,44.493,315.6294,8.9164e-05,1.131e-05,0.0,0 STARLINK-3121,1 49428U 21104W   22337.86998642  .00001131  00000-0  89164-4 0  9992,2 49428  53.2164 179.4177 0002892  44.4930 315.6294 15.08839252 58715,6917.8830000000025,95.438,541.748,537.747,0.0
49428.0,STARLINK-3121,PAYLOAD,2022-12-04 06:25:05,15.08840438,0.0002946,53.2166,177.6334,44.6907,315.4322,0.00012294,1.669e-05,0.0,0 STARLINK-3121,1 49428U 21104W   22338.26742498  .00001669  00000-0  12294-3 0  9998,2 49428  53.2166 177.6334 0002946  44.6907 315.4322 15.08840438 58772,6917.879,95.438,541.7819999999998,537.706,0.0
49428.0,STARLINK-3121,PAYLOAD,2022-12-04 23:54:20,15.08833532,0.0002962,53.2169,174.3625,46.1753,313.9484,4.1193e-06,-2.23e-06,0.0,0 STARLINK-3121,1 49428U 21104W   22338.99607507 -.00000223  00000-0  41193-5 0  9997,2 49428  53.2169 174.3625 0002962  46.1753 313.9484 15.08833532 59956,6917.9,95.438,541.814,537.716,0.0
49428.0,STARLINK-3121,PAYLOAD,2022-12-05 06:15:53,15.08834758,0.0002978,53.2173,173.1731,46.7155,313.4085,-4.6595e-06,-3.63e-06,0.0,0 STARLINK-3121,1 49428U 21104W   22339.26103534 -.00000363  00000-0 -46595-5 0  9996,2 49428  53.2173 173.1731 0002978  46.7155 313.4085 15.08834758 58924,6917.896,95.438,541.822,537.701,0.0
49428.0,STARLINK-3121,PAYLOAD,2022-12-05 18:58:58,15.08840931,0.0003,53.2174,170.794,47.6099,312.5147,-1.1344e-06,-3.07e-06,0.0,0 STARLINK-3121,1 49428U 21104W   22339.79095204 -.00000307  00000-0 -11344-5 0  9990,2 49428  53.2174 170.7940 0003000  47.6099 312.5147 15.08840931 60072,6917.878000000002,95.437,541.818,537.6669999999998,0.0
49428.0,STARLINK-3121,PAYLOAD,2022-12-06 12:28:12,15.08844144,0.0003001,53.217,167.5229,48.565,311.5599,1.0456e-05,-1.22e-06,0.0,0 STARLINK-3121,1 49428U 21104W   22340.51958905 -.00000122  00000-0  10456-4 0  9994,2 49428  53.2170 167.5229 0003001  48.5650 311.5599 15.08844144 59119,6917.868,95.437,541.809,537.6569999999998,0.0
49428.0,STARLINK-3121,PAYLOAD,2022-12-06 15:38:58,15.0884098,0.0002917,53.2166,166.928,47.8979,312.226,7.5636e-05,9.15e-06,0.0,0 STARLINK-3121,1 49428U 21104W   22340.65206872  .00000915  00000-0  75636-4 0  9998,2 49428  53.2166 166.9280 0002917  47.8979 312.2260 15.08840980 59134,6917.877,95.437,541.76,537.724,0.0
49428.0,STARLINK-3121,PAYLOAD,2022-12-06 22:00:31,15.08840735,0.0002974,53.2166,165.7387,48.6168,311.5079,0.00011002,1.463e-05,0.0,0 STARLINK-3121,1 49428U 21104W   22340.91702748  .00001463  00000-0  11002-3 0  9995,2 49428  53.2166 165.7387 0002974  48.6168 311.5079 15.08840735 60243,6917.878000000002,95.438,541.8009999999998,537.686,0.0
49428.0,STARLINK-3121,PAYLOAD,2022-12-07 18:40:32,15.08834508,0.000298,53.2167,161.8732,48.9492,311.1757,8.2668e-06,-1.57e-06,0.0,0 STARLINK-3121,1 49428U 21104W   22341.77815549 -.00000157  00000-0  82668-5 0  9992,2 49428  53.2167 161.8732 0002980  48.9492 311.1757 15.08834508 60379,6917.897,95.438,541.8240000000002,537.701,0.0
49428.0,STARLINK-3121,PAYLOAD,2022-12-08 12:09:46,15.08841028,0.0002964,53.2168,158.6017,50.8165,309.309,-1.2399e-06,-3.08e-06,0.0,0 STARLINK-3121,1 49428U 21104W   22342.50679298 -.00000308  00000-0 -12399-5 0  9996,2 49428  53.2168 158.6017 0002964  50.8165 309.3090 15.08841028 59418,6917.877,95.437,541.793,537.692,0.0
49428.0,STARLINK-3121,PAYLOAD,2022-12-08 18:31:19,15.0884217,0.0003065,53.2167,157.4137,48.5452,311.5803,2.1886e-05,6e-07,0.0,0 STARLINK-3121,1 49428U 21104W   22342.77175108  .00000060  00000-0  21886-4 0  9999,2 49428  53.2167 157.4137 0003065  48.5452 311.5803 15.08842170 60523,6917.874,95.437,541.859,537.618,0.0
49428.0,STARLINK-3121,PAYLOAD,2022-12-08 23:17:28,15.08844046,0.0003013999999999,53.2167,156.5204,51.6956,308.4307,3.1462e-05,2.12e-06,0.0,0 STARLINK-3121,1 49428U 21104W   22342.97046968  .00000212  00000-0  31462-4 0  9992,2 49428  53.2167 156.5204 0003014  51.6956 308.4307 15.08844046 59487,6917.868,95.437,541.818,537.648,0.0
49428.0,STARLINK-3121,PAYLOAD,2022-12-09 18:22:07,15.08826993,0.0002561,53.2182,152.9588,34.1007,326.0149,4.6652e-05,4.54e-06,0.0,0 STARLINK-3121,1 49428U 21104W   22343.76535993  .00000454  00000-0  46652-4 0  9996,2 49428  53.2182 152.9588 0002561  34.1007 326.0149 15.08826993 60672,6917.92,95.438,541.557,538.013,0.0
49428.0,STARLINK-3121,PAYLOAD,2022-12-10 11:51:21,15.08835774,0.0003174,53.218,149.685,59.3693,300.7612,2.6405e-05,1.31e-06,0.0,0 STARLINK-3121,1 49428U 21104W   22344.49399809  .00000131  00000-0  26405-4 0  9997,2 49428  53.2180 149.6850 0003174  59.3693 300.7612 15.08835774 60789,6917.893,95.438,541.9540000000002,537.563,0.0
49428.0,STARLINK-3121,PAYLOAD,2022-12-10 18:12:53,15.08837867,0.0003024,53.2176,148.4944,55.6559,304.4719,3.8245e-05,3.2e-06,0.0,0 STARLINK-3121,1 49428U 21104W   22344.75895692  .00000320  00000-0  38245-4 0  9992,2 49428  53.2176 148.4944 0003024  55.6559 304.4719 15.08837867 59758,6917.887,95.438,541.844,537.66,0.0
49428.0,STARLINK-3121,PAYLOAD,2022-12-11 11:42:07,15.08859288,0.0003089,53.2166,145.2205,51.9347,308.1924,-0.00010727,-1.997e-05,0.0,0 STARLINK-3121,1 49428U 21104W   22345.48758420 -.00001997  00000-0 -10727-3 0  9997,2 49428  53.2166 145.2205 0003089  51.9347 308.1924 15.08859288 60939,6917.821,95.436,541.823,537.55,0.0
49428.0,STARLINK-3121,PAYLOAD,2022-12-11 19:39:04,15.08834941,0.000294,53.2167,143.7339,52.1771,307.9487,7.4978e-05,9.05e-06,0.0,0 STARLINK-3121,1 49428U 21104W   22345.81879738  .00000905  00000-0  74978-4 0  9995,2 49428  53.2167 143.7339 0002940  52.1771 307.9487 15.08834941 60985,6917.896,95.438,541.795,537.727,0.0
49428.0,STARLINK-3121,PAYLOAD,2022-12-11 21:14:27,15.08835382,0.0002924,53.2167,143.4364,52.1427,307.983,8.1548e-05,1.009e-05,0.0,0 STARLINK-3121,1 49428U 21104W   22345.88503758  .00001009  00000-0  81548-4 0  9995,2 49428  53.2167 143.4364 0002924  52.1427 307.9830 15.08835382 59924,6917.895,95.438,541.7819999999998,537.737,0.0
49428.0,STARLINK-3121,PAYLOAD,2022-12-12 11:32:55,15.08850363,0.0002962,53.2175,140.7604,60.2875,299.8412,-4.0775e-05,-9.38e-06,0.0,0 STARLINK-3121,1 49428U 21104W   22346.48119261 -.00000938  00000-0 -40775-4 0  9993,2 49428  53.2175 140.7604 0002962  60.2875 299.8412 15.08850363 61080,6917.849,95.437,541.763,537.665,0.0
49428.0,STARLINK-3121,PAYLOAD,2022-12-13 09:48:18,15.08843761,0.0003047,53.2175,136.5973,53.2658,306.8613,5.2497e-05,5.47e-06,0.0,0 STARLINK-3121,1 49428U 21104W   22347.40855261  .00000547  00000-0  52497-4 0  9991,2 49428  53.2175 136.5973 0003047  53.2658 306.8613 15.08843761 61220,6917.869000000002,95.437,541.842,537.626,0.0
49428.0,STARLINK-3121,PAYLOAD,2022-12-13 11:23:42,15.08843822,0.0003008,53.2174,136.3,53.9066,306.2205,4.3236e-05,4e-06,0.0,0 STARLINK-3121,1 49428U 21104W   22347.47479236  .00000400  00000-0  43236-4 0  9991,2 49428  53.2174 136.3000 0003008  53.9066 306.2205 15.08843822 60166,6917.869000000002,95.437,541.815,537.653,0.0
